ASTROCAST-0403          
1 55111U 23001DG  26068.82333059  .00013959  00000+0  51317-3 0  9990
2 55111  97.5604 161.3228 0004770 338.0704  22.0330 15.28004949129376
STARLINK-31910          
1 59664U 24084L   26068.93773448  .00022118  00000+0  81409-3 0  9993
2 59664  43.0019  40.1735 0001147 235.7114 124.3629 15.27449230104419
